GLOBALSTAR M063         
1 26081U 00008A   25232.55639503 -.00000061  00000+0  31502-3 0  9996
2 26081  51.9962 302.0502 0004823  84.5857  54.0247 11.86175276165218
GLOBALSTAR M062         
1 26082U 00008B   25232.53162461 -.00000028  00000+0  50117-3 0  9995
2 26082  51.9832 266.5671 0007109 247.3066 278.5182 12.43470625504620
GLOBALSTAR M060         
1 26083U 00008C   25232.43875179 -.00000006  00000+0  84329-3 0  9990
2 26083  51.9992 235.9359 0003324 256.8653 250.9005 12.17664713160195
GLOBALSTAR M064         
1 26084U 00008D   25232.47959914 -.00000061  00000+0  31571-3 0  9997
2 26084  52.0047  40.3171 0001647 149.2504 210.8425 11.88535804174747
GLOBALSTAR M065         
1 31571U 07020A   25232.61942014 -.00000109  00000+0 -27121-4 0  9995
2 31571  51.9910  30.1541 0010891  91.2555 348.2834 12.62010428841544
GLOBALSTAR M069         
1 31573U 07020C   25232.45428466 -.00000083  00000+0  85324-4 0  9998
2 31573  52.0057  23.3100 0000642 228.5692 146.0271 12.23460922841998
GLOBALSTAR M072         
1 31574U 07020D   25232.62186234 -.00000103  00000+0 -25774-3 0  9998
2 31574  51.9915 180.4289 0001312  73.7665  97.1643 11.91651107839142
GLOBALSTAR M071         
1 31576U 07020F   25232.52481443 -.00000087  00000+0  42978-4 0  9995
2 31576  52.0071  50.5438 0000400 149.3275 227.1372 12.18257456502786
